FLOCK 3P-39             
1 42038U 17008CU  17348.40706635  .00001768  00000-0  76771-4 0  9991
2 42038  97.4747  49.2546 0006589 311.9223  48.1451 15.23640472 45866
FLOCK 3P-15             
1 42039U 17008CV  17347.88713778  .00002615  00000-0  11220-3 0  9998
2 42039  97.4755  48.7366 0006463 313.5574  46.5126 15.23616656 45068
FLOCK 3P-13             
1 42040U 17008CW  17348.40579188  .00001254  00000-0  55352-4 0  9997
2 42040  97.4755  49.2768 0006328 313.4680  46.6030 15.23632725 45137
FLOCK 3P-55             
1 42041U 17008CX  17347.72789495  .00001463  00000-0  64116-4 0  9996
2 42041  97.4754  48.6457 0006261 320.6913  39.3868 15.23607121 45871
FLOCK 3P-56             
1 42042U 17008CY  17347.89667259  .00003053  00000-0  12851-3 0  9993
2 42042  97.4752  48.8660 0006121 318.6469  41.4304 15.24136488 45699
FLOCK 3P-81             
1 42043U 17008CZ  17348.43166323  .00002621  00000-0  11203-3 0  9991
2 42043  97.4779  49.3442 0006710 290.0834  69.9681 15.23738027 45156
FLOCK 3P-87             
1 42044U 17008DA  17347.71899460  .00001434  00000-0  62788-4 0  9993
2 42044  97.4772  48.5954 0006903 289.6422  70.4070 15.23656700 45190
FLOCK 3P-29             
1 42045U 17008DB  17347.72083380  .00001471  00000-0  64351-4 0  9990
2 42045  97.4756  48.5205 0006558 285.9326  74.1188 15.23662594 45043
FLOCK 3P-82             
1 42046U 17008DC  17347.91429292  .00003224  00000-0  13680-3 0  9994
2 42046  97.4777  48.8018 0006876 289.5553  70.4941 15.23817704 45127
FLOCK 3P-78             
1 42047U 17008DD  17347.84965900  .00001785  00000-0  77338-4 0  9999
2 42047  97.4775  48.7385 0006786 289.1041  70.9461 15.23696374 45041
FLOCK 3P-74             
1 42048U 17008DE  17347.72762922  .00003129  00000-0  13367-3 0  9991
2 42048  97.4781  48.6053 0007066 290.2831  69.7646 15.23610577 45022
FLOCK 3P-31             
1 42049U 17008DF  17348.38629370  .00004364  00000-0  18502-3 0  9992
2 42049  97.4760  49.1658 0006621 284.3363  75.7138 15.23644016 44585
FLOCK 3P-83             
1 42050U 17008DG  17348.18991054  .00003189  00000-0  13612-3 0  9994
2 42050  97.4778  49.0465 0006946 289.7203  70.3284 15.23621395 45829
FLOCK 3P-72             
1 42051U 17008DH  17347.77498671  .00000855  00000-0  38739-4 0  9991
2 42051  97.4781  48.7012 0006529 290.1194  69.9340 15.23584275 43358
LEMUR-2-REDFERN-GOES    
1 42059U 98067LA  17347.86633289  .00024886  00000-0  24462-3 0  9996
2 42059  51.6360 211.1038 0005752 230.8892 129.1593 15.65847514 44082
LEMUR-2-TRUTNA          
1 42067U 98067LC  17348.06343178  .00058823  00000-0  37079-3 0  9999
2 42067  51.6376 202.6196 0005151 213.6813 146.3860 15.76061528 44042
LEMUR-2-AUSTINTACIOUS   
1 42068U 98067LD  17348.43313483  .00025816  00000-0  23318-3 0  9994
2 42068  51.6361 206.6381 0005669 222.7879 137.2677 15.67930128 44129
LEMUR-2-TRUTNAHD        
1 42069U 98067LE  17347.87719503  .00024100  00000-0  23028-3 0  9998
2 42069  51.6368 210.4481 0005196 226.8570 133.1992 15.66580883 44076
HAVELSAT                
1 42700U 98067LH  17348.22732731  .00019517  00000-0  21763-3 0  9998
2 42700  51.6374 214.2838 0003874 260.0133 100.0424 15.62814662 33026
SOMP 2                  
1 42701U 98067LJ  17348.19950592  .00018167  00000-0  20699-3 0  9999
2 42701  51.6373 214.8482 0003860 259.3602 100.6958 15.62313289 33009
COLUMBIA                
1 42702U 98067LK  17348.06886522  .00088241  00000-0  55892-3 0  9990
2 42702  51.6325 208.6692 0005219 210.9306 149.1387 15.75788229 33003
SGSAT                   
1 42703U 98067LL  17348.10067995  .00049920  00000-0  40817-3 0  9993
2 42703  51.6337 211.1458 0004456 177.5328 182.5692 15.70030355 32969
CXBN-2                  
1 42704U 98067LM  17348.13847524  .00018534  00000-0  21018-3 0  9990
2 42704  51.6377 215.1945 0002656 175.9475 184.1541 15.62422611 32922
ICECUBE                 
1 42705U 98067LN  17348.09372913  .00026388  00000-0  26860-3 0  9997
2 42705  51.6405 214.1742 0002813 190.0188 170.0752 15.64944345 32993
PHOENIX                 
1 42706U 98067LP  17348.12196606  .00016457  00000-0  18813-3 0  9990
2 42706  51.6373 215.0826 0001679 171.7532 188.3490 15.62313089 32915
X-CUBESAT               
1 42707U 98067LQ  17348.10892823  .00020494  00000-0  22822-3 0  9994
2 42707  51.6355 214.9798 0001861 174.4958 185.6057 15.62817577 32906
QBEE50-LTU-OC           
1 42708U 98067LR  17348.05750419  .00019093  00000-0  21525-3 0  9995
2 42708  51.6369 215.3893 0001832 175.5972 184.5039 15.62551788 32850
ALTAIR PATHFINDER       
1 42711U 98067LS  17348.10318907  .00012092  00000-0  15403-3 0  9997
2 42711  51.6372 217.1991 0004311 192.1493 167.9397 15.59771371 32541
SHARC                   
1 42712U 98067LT  17348.06928539  .00007378  00000-0  99203-4 0  9993
2 42712  51.6389 217.7414 0002450 190.1108 169.9836 15.59030704 32772
ZA-AEROSAT              
1 42713U 98067LU  17348.07836711  .00016120  00000-0  19180-3 0  9995
2 42713  51.6369 216.2879 0003002 173.7131 186.3901 15.61287685 32554
LINK                    
1 42714U 98067LV  17348.11953293  .00029924  00000-0  30678-3 0  9997
2 42714  51.6347 214.2917 0003645 173.2310 186.8735 15.64688519 32698
CSUNSAT 1               
1 42715U 98067LW  17348.26632623  .00016056  00000-0  18956-3 0  9992
2 42715  51.6377 215.2928 0004815 182.4777 177.6193 15.61488635 32582
UPSAT                   
1 42716U 98067LX  17348.24901374  .00025115  00000-0  26533-3 0  9999
2 42716  51.6366 213.6760 0002411 245.2119 114.8625 15.64030915 32732
SPACECUBE               
1 42717U 98067LY  17348.20296882  .00017537  00000-0  19899-3 0  9993
2 42717  51.6366 214.8676 0002443 252.6552 107.4175 15.62451127 31951
HOOPOE                  
1 42718U 98067LZ  17348.22514268  .00020501  00000-0  22432-3 0  9999
2 42718  51.6368 214.2659 0002470 245.6231 114.4506 15.63269029 31961
CHALLENGER              
1 42721U 98067MA  17348.12760312  .00034225  00000-0  33194-3 0  9990
2 42721  51.6354 213.5937 0005259 230.2809 129.7723 15.66005983 31667
NJUST-1                 
1 42722U 98067MB  17348.18277081  .00014416  00000-0  17512-3 0  9999
2 42722  51.6375 216.2336 0005579 246.0187 114.0223 15.60838001 31631
UNSW-ECO                
1 42723U 98067MC  17348.06824477  .00023217  00000-0  25339-3 0  9999
2 42723  51.6378 215.4742 0005174 237.6029 122.4465 15.63238929 31614
DUTHSAT                 
1 42724U 98067MD  17348.02901895  .00032503  00000-0  32195-3 0  9992
2 42724  51.6364 214.4498 0004503 229.3222 130.7382 15.65508440 31547
LILACSAT-1              
1 42725U 98067ME  17348.08996986  .00017447  00000-0  20396-3 0  9994
2 42725  51.6374 216.3662 0004571 242.6178 117.4351 15.61674823 31527
NSIGHT-1                
1 42726U 98067MF  17348.11743634  .00007884  00000-0  10767-3 0  9994
2 42726  51.6384 218.0592 0005012 254.8426 105.2013 15.58493685 31512
SNUSAT-1                
1 42727U 98067MG  17347.70777144  .00019360  00000-0  22644-3 0  9991
2 42727  51.6361 218.2940 0007179 206.3518 153.7111 15.61563876 31439
QBITO                   
1 42728U 98067MH  17348.23385447  .00018922  00000-0  21484-3 0  9996
2 42728  51.6389 215.0958 0002249 230.7085 129.3710 15.62374826 31369
AALTO-2                 
1 42729U 98067MJ  17348.23186520  .00019824  00000-0  22421-3 0  9992
2 42729  51.6374 215.0673 0002261 229.1674 130.9125 15.62440019 31375
SUSAT                   
1 42730U 98067MK  17348.06116010  .00018933  00000-0  21789-3 0  9998
2 42730  51.6371 216.1705 0002389 228.8093 131.2695 15.62024433 31334
I-INSPIRE II            
1 42731U 98067ML  17348.05044204  .00024966  00000-0  26940-3 0  9990
2 42731  51.6360 215.3307 0006971 192.0052 168.0778 15.63472187 31390
POLYITAN-2-SAU          
1 42732U 98067MM  17348.22100076  .00019704  00000-0  22114-3 0  9993
2 42732  51.6367 214.9753 0006931 193.9750 166.1053 15.62624562 31412
SNUSAT-1B               
1 42733U 98067MN  17348.12604763  .00018990  00000-0  21866-3 0  9994
2 42733  51.6370 215.8447 0006906 195.8837 164.1942 15.61989486 31396
EXALTA-1                
1 42734U 98067MP  17348.24783617  .00023735  00000-0  25630-3 0  9990
2 42734  51.6358 214.4010 0007443 217.7862 142.2610 15.63482463 31375
AOXIANG-1               
1 42735U 98067MQ  17348.23766421  .00015319  00000-0  18464-3 0  9990
2 42735  51.6368 215.8430 0006161 243.7318 116.3043 15.60982763 32771
BEEAGLESAT              
1 42736U 98067MR  17348.21515534  .00016037  00000-0  18921-3 0  9992
2 42736  51.6367 215.6916 0006053 240.7175 119.3214 15.61499604 31462
ATLANTIS                
1 42737U 98067MS  17347.79944448  .00067846  00000-0  49473-3 0  9995
2 42737  51.6325 212.1154 0006466 211.6821 148.3789 15.72617859 31360
LEMUR-2-ANGELA          
1 42752U 17019B   17348.19707244  .00001097  00000-0  51812-4 0  9993
2 42752  51.6409 257.7567 0009712 266.5097  93.4771 15.28388090 28814
LEMUR-2-JENNYBARNA      
1 42753U 17019C   17348.24232153  .00003040  00000-0  11976-3 0  9998
2 42753  51.6397 257.3154 0009579 265.7302  94.2583 15.28732109 28779
LEMUR-2-ROBMOORE        
1 42754U 17019D   17348.33695510  .00001631  00000-0  70978-4 0  9991
2 42754  51.6416 257.1858 0009760 269.8284  90.1578 15.28317188 28817
LEMUR-2-SPIROVISION     
1 42755U 17019E   17348.18860755  .00002116  00000-0  87466-4 0  9999
2 42755  51.6398 257.6980 0009511 268.9747  91.0143 15.28640298 28680
UCLSAT                  
1 42765U 17036A   17348.41643893  .00001492  00000-0  69628-4 0  9993
2 42765  97.4281  46.0249 0012142  12.0204 348.1319 15.21341458 26619
LITUANICASAT-2          
1 42768U 17036D   17348.39767737  .00002536  00000-0  11863-3 0  9994
2 42768  97.4293  45.7520 0015809 359.2928   0.8282 15.20572918 26476
LEMUR-2-SHAINAJOHL      
1 42771U 17036G   17347.79582634  .00001757  00000-0  83336-4 0  9991
2 42771  97.4284  45.1783 0015072   1.0902 359.0363 15.20508129 26327
